{"type": "FeatureCollection", "features": [ {"type": "Feature", "properties": {"norad_id": 42987, "name": "SKYSAT-C11", "group": "resource", "lat": -34.797837363822204, "lon": 139.16486735029443, "alt_km": 429.98000892287564, "timestamp": "2025-12-22T05:49:03.139863+00:00", "meta": {"OBJECT_NAME": "SKYSAT-C11", "OBJECT_ID": "2017-068A", "EPOCH": "2025-12-21T16:00:16.926048", "MEAN_MOTION": 15.47797552, "ECCENTRICITY": 0.0001162, "INCLINATION": 97.415, "RA_OF_ASC_NODE": 133.3819, "ARG_OF_PERICENTER": 98.8303, "MEAN_ANOMALY": 261.3078, "EPHEMERIS_TYPE": 0, "CLASSIFICATION_TYPE": "U", "NORAD_CAT_ID": 42987, "ELEMENT_SET_NO": 999, "REV_AT_EPOCH": 45569, "BSTAR": 0.00037061, "MEAN_MOTION_DOT": 0.0001916, "MEAN_MOTION_DDOT": 0}, "tle": {"line1": "1 42987U 17068A   25355.66686257  .00019160  00000+0  37061-3 0  9994", "line2": "2 42987  97.4150 133.3819 0001162  98.8303 261.3078 15.47797552455695"}}, "geometry": {"type": "Point", "coordinates": [139.16486735029443, -34.797837363822204]}}, {"type": "Feature", "properties": {"norad_id": 42988, "name": "SKYSAT-C10", "group": "resource", "lat": -56.04032444189335, "lon": -64.04713828300066, "alt_km": 479.6666807547181, "timestamp": "2025-12-22T05:49:03.139874+00:00", "meta": {"OBJECT_NAME": "SKYSAT-C10", "OBJECT_ID": "2017-068B", "EPOCH": "2025-12-21T19:23:01.982976", "MEAN_MOTION": 15.32239543, "ECCENTRICITY": 0.0005391, "INCLINATION": 97.4267, "RA_OF_ASC_NODE": 126.6847, "ARG_OF_PERICENTER": 79.0012, "MEAN_ANOMALY": 281.1836, "EPHEMERIS_TYPE": 0, "CLASSIFICATION_TYPE": "U", "NORAD_CAT_ID": 42988, "ELEMENT_SET_NO": 999, "REV_AT_EPOCH": 45518, "BSTAR": 0.00029025, "MEAN_MOTION_DOT": 8.961e-05, "MEAN_MOTION_DDOT": 0}, "tle": {"line1": "1 42988U 17068B   25355.80766184  .00008961  00000+0  29025-3 0  9997", "line2": "2 42988  97.4267 126.6847 0005391  79.0012 281.1836 15.32239543455188"}}, "geometry": {"type": "Point", "coordinates": [-64.04713828300066, -56.04032444189335]}}, {"type": "Feature", "properties": {"norad_id": 42989, "name": "SKYSAT-C9", "group": "resource", "lat": -40.787111412576856, "lon": -59.88338214941268, "alt_km": 470.636047248011, "timestamp": "2025-12-22T05:49:03.139885+00:00", "meta": {"OBJECT_NAME": "SKYSAT-C9", "OBJECT_ID": "2017-068C", "EPOCH": "2025-12-21T19:28:44.749056", "MEAN_MOTION": 15.36261428, "ECCENTRICITY": 0.0010443, "INCLINATION": 97.4196, "RA_OF_ASC_NODE": 126.1381, "ARG_OF_PERICENTER": 58.73, "MEAN_ANOMALY": 301.4966, "EPHEMERIS_TYPE": 0, "CLASSIFICATION_TYPE": "U", "NORAD_CAT_ID": 42989, "ELEMENT_SET_NO": 999, "REV_AT_EPOCH": 45547, "BSTAR": 0.00031501, "MEAN_MOTION_DOT": 0.00011075, "MEAN_MOTION_DDOT": 0}, "tle": {"line1": "1 42989U 17068C   25355.81162904  .00011075  00000+0  31501-3 0  9991", "line2": "2 42989  97.4196 126.1381 0010443  58.7300 301.4966 15.36261428455479"}}, "geometry": {"type": "Point", "coordinates": [-59.88338214941268, -40.787111412576856]}}, {"type": "Feature", "properties": {"norad_id": 42990, "name": "SKYSAT-C8", "group": "resource", "lat": 80.74064874935092, "lon": 73.12000461264465, "alt_km": 459.75058616781916, "timestamp": "2025-12-22T05:49:03.139896+00:00", "meta": {"OBJECT_NAME": "SKYSAT-C8", "OBJECT_ID": "2017-068D", "EPOCH": "2025-12-21T15:21:08.427168", "MEAN_MOTION": 15.33101109, "ECCENTRICITY": 0.0001047, "INCLINATION": 97.4289, "RA_OF_ASC_NODE": 125.6798, "ARG_OF_PERICENTER": 296.3414, "MEAN_ANOMALY": 63.7721, "EPHEMERIS_TYPE": 0, "CLASSIFICATION_TYPE": "U", "NORAD_CAT_ID": 42990, "ELEMENT_SET_NO": 999, "REV_AT_EPOCH": 45507, "BSTAR": 0.00030234, "MEAN_MOTION_DOT": 9.591e-05, "MEAN_MOTION_DDOT": 0}, "tle": {"line1": "1 42990U 17068D   25355.63968087  .00009591  00000+0  30234-3 0  9991", "line2": "2 42990  97.4289 125.6798 0001047 296.3414  63.7721 15.33101109455075"}}, "geometry": {"type": "Point", "coordinates": [73.12000461264465, 80.74064874935092]}}, {"type": "Feature", "properties": {"norad_id": 42991, "name": "SKYSAT-C7", "group": "resource", "lat": -78.0697625062701, "lon": 165.46279592699605, "alt_km": 477.16620549594245, "timestamp": "2025-12-22T05:49:03.139906+00:00", "meta": {"OBJECT_NAME": "SKYSAT-C7", "OBJECT_ID": "2017-068E", "EPOCH": "2025-12-21T14:29:53.176416", "MEAN_MOTION": 15.32498854, "ECCENTRICITY": 0.0007098, "INCLINATION": 97.4298, "RA_OF_ASC_NODE": 126.6779, "ARG_OF_PERICENTER": 29.4906, "MEAN_ANOMALY": 330.6735, "EPHEMERIS_TYPE": 0, "CLASSIFICATION_TYPE": "U", "NORAD_CAT_ID": 42991, "ELEMENT_SET_NO": 999, "REV_AT_EPOCH": 45513, "BSTAR": 0.00028728, "MEAN_MOTION_DOT": 8.944e-05, "MEAN_MOTION_DDOT": 0}, "tle": {"line1": "1 42991U 17068E   25355.60408769  .00008944  00000+0  28728-3 0  9991", "line2": "2 42991  97.4298 126.6779 0007098  29.4906 330.6735 15.32498854455132"}}, "geometry": {"type": "Point", "coordinates": [165.46279592699605, -78.0697625062701]}}, {"type": "Feature", "properties": {"norad_id": 42992, "name": "SKYSAT-C6", "group": "resource", "lat": 7.455535233490891, "lon": 126.77061160219687, "alt_km": 470.69306304532256, "timestamp": "2025-12-22T05:49:03.139917+00:00", "meta": {"OBJECT_NAME": "SKYSAT-C6", "OBJECT_ID": "2017-068F", "EPOCH": "2025-12-21T15:40:24.245760", "MEAN_MOTION": 15.31657178, "ECCENTRICITY": 0.0004946, "INCLINATION": 97.4328, "RA_OF_ASC_NODE": 127.1585, "ARG_OF_PERICENTER": 58.7729, "MEAN_ANOMALY": 301.3997, "EPHEMERIS_TYPE": 0, "CLASSIFICATION_TYPE": "U", "NORAD_CAT_ID": 42992, "ELEMENT_SET_NO": 999, "REV_AT_EPOCH": 45512, "BSTAR": 0.00029809, "MEAN_MOTION_DOT": 9.038e-05, "MEAN_MOTION_DDOT": 0}, "tle": {"line1": "1 42992U 17068F   25355.65305840  .00009038  00000+0  29809-3 0  9999", "line2": "2 42992  97.4328 127.1585 0004946  58.7729 301.3997 15.31657178455124"}}, "geometry": {"type": "Point", "coordinates": [126.77061160219687, 7.455535233490891]}}, {"type": "Feature", "properties": {"norad_id": 43111, "name": "CARTOSAT-2F", "group": "resource", "lat": 52.412886413509575, "lon": 43.96430976635403, "alt_km": 502.8753367992249, "timestamp": "2025-12-22T05:49:03.139927+00:00", "meta": {"OBJECT_NAME": "CARTOSAT-2F", "OBJECT_ID": "2018-004A", "EPOCH": "2025-12-21T20:06:00.488160", "MEAN_MOTION": 15.19200865, "ECCENTRICITY": 0.0001396, "INCLINATION": 97.4307, "RA_OF_ASC_NODE": 53.3279, "ARG_OF_PERICENTER": 111.1911, "MEAN_ANOMALY": 248.9473, "EPHEMERIS_TYPE": 0, "CLASSIFICATION_TYPE": "U", "NORAD_CAT_ID": 43111, "ELEMENT_SET_NO": 999, "REV_AT_EPOCH": 44040, "BSTAR": 0.00011682, "MEAN_MOTION_DOT": 2.391e-05, "MEAN_MOTION_DDOT": 0}, "tle": {"line1": "1 43111U 18004A   25355.83750565  .00002391  00000+0  11682-3 0  9997", "line2": "2 43111  97.4307  53.3279 0001396 111.1911 248.9473 15.19200865440401"}}, "geometry": {"type": "Point", "coordinates": [43.96430976635403, 52.412886413509575]}}, {"type": "Feature", "properties": {"norad_id": 43259, "name": "GAOFEN-1 02", "group": "resource", "lat": 22.82705366449447, "lon": -122.53686995624363, "alt_km": 638.699376236782, "timestamp": "2025-12-22T05:49:03.139939+00:00", "meta": {"OBJECT_NAME": "GAOFEN-1 02", "OBJECT_ID": "2018-031A", "EPOCH": "2025-12-21T20:58:36.755328", "MEAN_MOTION": 14.76433082, "ECCENTRICITY": 0.0002395, "INCLINATION": 98.0798, "RA_OF_ASC_NODE": 53.6667, "ARG_OF_PERICENTER": 181.5379, "MEAN_ANOMALY": 178.5823, "EPHEMERIS_TYPE": 0, "CLASSIFICATION_TYPE": "U", "NORAD_CAT_ID": 43259, "ELEMENT_SET_NO": 999, "REV_AT_EPOCH": 41653, "BSTAR": 0.00014512, "MEAN_MOTION_DOT": 9.57e-06, "MEAN_MOTION_DDOT": 0}, "tle": {"line1": "1 43259U 18031A   25355.87403652  .00000957  00000+0  14512-3 0  9997", "line2": "2 43259  98.0798  53.6667 0002395 181.5379 178.5823 14.76433082416533"}}, "geometry": {"type": "Point", "coordinates": [-122.53686995624363, 22.82705366449447]}}, {"type": "Feature", "properties": {"norad_id": 43260, "name": "GAOFEN-1 03", "group": "resource", "lat": -81.46778714714252, "lon": 125.12665852550141, "alt_km": 646.6938996898507, "timestamp": "2025-12-22T05:49:03.139950+00:00", "meta": {"OBJECT_NAME": "GAOFEN-1 03", "OBJECT_ID": "2018-031B", "EPOCH": "2025-12-21T20:27:11.629152", "MEAN_MOTION": 14.76454008, "ECCENTRICITY": 0.00017, "INCLINATION": 98.0786, "RA_OF_ASC_NODE": 53.5205, "ARG_OF_PERICENTER": 273.8122, "MEAN_ANOMALY": 86.2893, "EPHEMERIS_TYPE": 0, "CLASSIFICATION_TYPE": "U", "NORAD_CAT_ID": 43260, "ELEMENT_SET_NO": 999, "REV_AT_EPOCH": 41652, "BSTAR": 0.00011358, "MEAN_MOTION_DOT": 7.38e-06, "MEAN_MOTION_DDOT": 0}, "tle": {"line1": "1 43260U 18031B   25355.85221793  .00000738  00000+0  11358-3 0  9993", "line2": "2 43260  98.0786  53.5205 0001700 273.8122  86.2893 14.76454008416521"}}, "geometry": {"type": "Point", "coordinates": [125.12665852550141, -81.46778714714252]}}, {"type": "Feature", "properties": {"norad_id": 43262, "name": "GAOFEN-1 04", "group": "resource", "lat": 41.45942965473953, "lon": 46.87159412767462, "alt_km": 636.8539875316037, "timestamp": "2025-12-22T05:49:03.139961+00:00", "meta": {"OBJECT_NAME": "GAOFEN-1 04", "OBJECT_ID": "2018-031D", "EPOCH": "2025-12-21T21:29:43.554336", "MEAN_MOTION": 14.76421569, "ECCENTRICITY": 6.84e-05, "INCLINATION": 98.0799, "RA_OF_ASC_NODE": 53.7346, "ARG_OF_PERICENTER": 53.2258, "MEAN_ANOMALY": 306.9014, "EPHEMERIS_TYPE": 0, "CLASSIFICATION_TYPE": "U", "NORAD_CAT_ID": 43262, "ELEMENT_SET_NO": 999, "REV_AT_EPOCH": 41652, "BSTAR": 3.2498e-05, "MEAN_MOTION_DOT": 1.74e-06, "MEAN_MOTION_DDOT": 0}, "tle": {"line1": "1 43262U 18031D   25355.89564299  .00000174  00000+0  32498-4 0  9993", "line2": "2 43262  98.0799  53.7346 0000684  53.2258 306.9014 14.76421569416528"}}, "geometry": {"type": "Point", "coordinates": [46.87159412767462, 41.45942965473953]}}]}